STARLINK-31593          
1 59350U 24060C   25296.48486185  .00009614  00000+0  35831-3 0  9994
2 59350  43.0000 314.3305 0001339 266.6550  93.4148 15.27589930 89089
STARLINK-31555          
1 59351U 24060D   25296.32597615  .00000077  00000+0  12328-4 0  9990
2 59351  43.0028 315.7210 0000480 247.2512 112.8289 15.27574374 89100
STARLINK-31561          
1 59352U 24060E   25296.48229051  .00003276  00000+0  12857-3 0  9994
2 59352  43.0013 314.3113 0000689 250.9759 109.1018 15.27564661 89081
STARLINK-31413          
1 59353U 24060F   25296.36565506 -.00000877  00000+0 -22312-4 0  9994
2 59353  43.0067 315.1569 0002328 286.3970  73.6626 15.27587113 89060
STARLINK-31422          
1 59354U 24060G   25296.47858551  .00002392  00000+0  96381-4 0  9991
2 59354  43.0005 315.1455 0001081 275.4758  84.5971 15.27587837 89073
STARLINK-31416          
1 59355U 24060H   25296.45288819 -.00000209  00000+0  19366-5 0  9999
2 59355  43.0019 314.9508 0001174 258.9070 101.1650 15.27579665 89071
STARLINK-31552          
1 59356U 24060J   25296.34396193  .00004595  00000+0  17636-3 0  9990
2 59356  42.9958 315.8685 0000411 187.3557 172.7289 15.27583177 89059
STARLINK-31557          
1 59357U 24060K   25296.33786023  .00002230  00000+0  90463-4 0  9999
2 59357  42.9922 311.4498 0002292 108.7744 251.3356 15.27606738 89103
STARLINK-31559          
1 59358U 24060L   25296.43874778 -.00007961  00000+0 -28021-3 0  9994
2 59358  43.0010 314.8446 0000978 281.1543  78.9199 15.27564101 89077
STARLINK-31501          
1 59359U 24060M   25296.46701939  .00000248  00000+0  18531-4 0  9991
2 59359  43.0013 315.0579 0001107 245.7362 114.3374 15.27590603 89077
STARLINK-31549          
1 59360U 24060N   25296.36180448 -.00001246  00000+0 -35758-4 0  9999
2 59360  43.0018 315.1232 0000915 238.0699 122.0064 15.27578420 89069
STARLINK-31560          
1 59361U 24060P   25296.13366637  .00000409  00000+0  24386-4 0  9994
2 59361  43.0015 316.8530 0001010 236.7765 123.2990 15.27584280 89020
STARLINK-31571          
1 59362U 24060Q   25296.39777537  .00000396  00000+0  23901-4 0  9995
2 59362  43.0014 315.3952 0001361 259.7579 100.3119 15.27592428 89065
STARLINK-31553          
1 59363U 24060R   25296.45255782  .00001624  00000+0  68537-4 0  9995
2 59363  43.0014 308.0101 0001694 267.7117  92.3541 15.27576999 89151
STARLINK-31547          
1 59364U 24060S   25296.44004814 -.00000458  00000+0 -71022-5 0  9993
2 59364  43.0048 303.6029 0002354 275.6400  84.4183 15.27582576 89204
STARLINK-31537          
1 59365U 24060T   25296.34011201 -.00001801  00000+0 -55973-4 0  9990
2 59365  43.0059 315.8235 0001323 234.8937 125.1790 15.27559317 89055
STARLINK-31451          
1 59366U 24060U   25296.35794810  .00000180  00000+0  16070-4 0  9998
2 59366  42.9999 315.0941 0000986 269.0174  91.0564 15.27582584 89063
