[{"OBJECT_NAME":"STARLINK-31593","OBJECT_ID":"2024-060C","EPOCH":"2025-10-23T11:38:12.063840","MEAN_MOTION":15.2758993,"ECCENTRICITY":0.0001339,"INCLINATION":43,"RA_OF_ASC_NODE":314.3305,"ARG_OF_PERICENTER":266.655,"MEAN_ANOMALY":93.4148,"EPHEMERIS_TYPE":0,"CLASSIFICATION_TYPE":"U","NORAD_CAT_ID":59350,"ELEMENT_SET_NO":999,"REV_AT_EPOCH":8908,"BSTAR":0.00035831,"MEAN_MOTION_DOT":9.614e-5,"MEAN_MOTION_DDOT":0},{"OBJECT_NAME":"STARLINK-31555","OBJECT_ID":"2024-060D","EPOCH":"2025-10-23T07:49:24.339360","MEAN_MOTION":15.27574374,"ECCENTRICITY":4.8e-5,"INCLINATION":43.0028,"RA_OF_ASC_NODE":315.721,"ARG_OF_PERICENTER":247.2512,"MEAN_ANOMALY":112.8289,"EPHEMERIS_TYPE":0,"CLASSIFICATION_TYPE":"U","NORAD_CAT_ID":59351,"ELEMENT_SET_NO":999,"REV_AT_EPOCH":8910,"BSTAR":1.2328e-5,"MEAN_MOTION_DOT":7.7e-7,"MEAN_MOTION_DDOT":0},{"OBJECT_NAME":"STARLINK-31561","OBJECT_ID":"2024-060E","EPOCH":"2025-10-23T11:34:29.900064","MEAN_MOTION":15.27564661,"ECCENTRICITY":6.89e-5,"INCLINATION":43.0013,"RA_OF_ASC_NODE":314.3113,"ARG_OF_PERICENTER":250.9759,"MEAN_ANOMALY":109.1018,"EPHEMERIS_TYPE":0,"CLASSIFICATION_TYPE":"U","NORAD_CAT_ID":59352,"ELEMENT_SET_NO":999,"REV_AT_EPOCH":8908,"BSTAR":0.00012857,"MEAN_MOTION_DOT":3.276e-5,"MEAN_MOTION_DDOT":0},{"OBJECT_NAME":"STARLINK-31413","OBJECT_ID":"2024-060F","EPOCH":"2025-10-23T08:46:32.597184","MEAN_MOTION":15.27587113,"ECCENTRICITY":0.0002328,"INCLINATION":43.0067,"RA_OF_ASC_NODE":315.1569,"ARG_OF_PERICENTER":286.397,"MEAN_ANOMALY":73.6626,"EPHEMERIS_TYPE":0,"CLASSIFICATION_TYPE":"U","NORAD_CAT_ID":59353,"ELEMENT_SET_NO":999,"REV_AT_EPOCH":8906,"BSTAR":-2.2312e-5,"MEAN_MOTION_DOT":-8.77e-6,"MEAN_MOTION_DDOT":0},{"OBJECT_NAME":"STARLINK-31422","OBJECT_ID":"2024-060G","EPOCH":"2025-10-23T11:29:09.788064","MEAN_MOTION":15.27587837,"ECCENTRICITY":0.0001081,"INCLINATION":43.0005,"RA_OF_ASC_NODE":315.1455,"ARG_OF_PERICENTER":275.4758,"MEAN_ANOMALY":84.5971,"EPHEMERIS_TYPE":0,"CLASSIFICATION_TYPE":"U","NORAD_CAT_ID":59354,"ELEMENT_SET_NO":999,"REV_AT_EPOCH":8907,"BSTAR":9.6381e-5,"MEAN_MOTION_DOT":2.392e-5,"MEAN_MOTION_DDOT":0},{"OBJECT_NAME":"STARLINK-31416","OBJECT_ID":"2024-060H","EPOCH":"2025-10-23T10:52:09.539616","MEAN_MOTION":15.27579665,"ECCENTRICITY":0.0001174,"INCLINATION":43.0019,"RA_OF_ASC_NODE":314.9508,"ARG_OF_PERICENTER":258.907,"MEAN_ANOMALY":101.165,"EPHEMERIS_TYPE":0,"CLASSIFICATION_TYPE":"U","NORAD_CAT_ID":59355,"ELEMENT_SET_NO":999,"REV_AT_EPOCH":8907,"BSTAR":1.9366e-6,"MEAN_MOTION_DOT":-2.09e-6,"MEAN_MOTION_DDOT":0},{"OBJECT_NAME":"STARLINK-31552","OBJECT_ID":"2024-060J","EPOCH":"2025-10-23T08:15:18.310752","MEAN_MOTION":15.27583177,"ECCENTRICITY":4.11e-5,"INCLINATION":42.9958,"RA_OF_ASC_NODE":315.8685,"ARG_OF_PERICENTER":187.3557,"MEAN_ANOMALY":172.7289,"EPHEMERIS_TYPE":0,"CLASSIFICATION_TYPE":"U","NORAD_CAT_ID":59356,"ELEMENT_SET_NO":999,"REV_AT_EPOCH":8905,"BSTAR":0.00017636,"MEAN_MOTION_DOT":4.595e-5,"MEAN_MOTION_DDOT":0},{"OBJECT_NAME":"STARLINK-31557","OBJECT_ID":"2024-060K","EPOCH":"2025-10-23T08:06:31.123872","MEAN_MOTION":15.27606738,"ECCENTRICITY":0.0002292,"INCLINATION":42.9922,"RA_OF_ASC_NODE":311.4498,"ARG_OF_PERICENTER":108.7744,"MEAN_ANOMALY":251.3356,"EPHEMERIS_TYPE":0,"CLASSIFICATION_TYPE":"U","NORAD_CAT_ID":59357,"ELEMENT_SET_NO":999,"REV_AT_EPOCH":8910,"BSTAR":9.0463e-5,"MEAN_MOTION_DOT":2.23e-5,"MEAN_MOTION_DDOT":0},{"OBJECT_NAME":"STARLINK-31559","OBJECT_ID":"2024-060L","EPOCH":"2025-10-23T10:31:47.808192","MEAN_MOTION":15.27564101,"ECCENTRICITY":9.78e-5,"INCLINATION":43.001,"RA_OF_ASC_NODE":314.8446,"ARG_OF_PERICENTER":281.1543,"MEAN_ANOMALY":78.9199,"EPHEMERIS_TYPE":0,"CLASSIFICATION_TYPE":"U","NORAD_CAT_ID":59358,"ELEMENT_SET_NO":999,"REV_AT_EPOCH":8907,"BSTAR":-0.00028021,"MEAN_MOTION_DOT":-7.961e-5,"MEAN_MOTION_DDOT":0},{"OBJECT_NAME":"STARLINK-31501","OBJECT_ID":"2024-060M","EPOCH":"2025-10-23T11:12:30.475296","MEAN_MOTION":15.27590603,"ECCENTRICITY":0.0001107,"INCLINATION":43.0013,"RA_OF_ASC_NODE":315.0579,"ARG_OF_PERICENTER":245.7362,"MEAN_ANOMALY":114.3374,"EPHEMERIS_TYPE":0,"CLASSIFICATION_TYPE":"U","NORAD_CAT_ID":59359,"ELEMENT_SET_NO":999,"REV_AT_EPOCH":8907,"BSTAR":1.8531e-5,"MEAN_MOTION_DOT":2.48e-6,"MEAN_MOTION_DDOT":0},{"OBJECT_NAME":"STARLINK-31549","OBJECT_ID":"2024-060N","EPOCH":"2025-10-23T08:40:59.907072","MEAN_MOTION":15.2757842,"ECCENTRICITY":9.15e-5,"INCLINATION":43.0018,"RA_OF_ASC_NODE":315.1232,"ARG_OF_PERICENTER":238.0699,"MEAN_ANOMALY":122.0064,"EPHEMERIS_TYPE":0,"CLASSIFICATION_TYPE":"U","NORAD_CAT_ID":59360,"ELEMENT_SET_NO":999,"REV_AT_EPOCH":8906,"BSTAR":-3.5758e-5,"MEAN_MOTION_DOT":-1.246e-5,"MEAN_MOTION_DDOT":0},{"OBJECT_NAME":"STARLINK-31560","OBJECT_ID":"2024-060P","EPOCH":"2025-10-23T03:12:28.774368","MEAN_MOTION":15.2758428,"ECCENTRICITY":0.00010102,"INCLINATION":43.0015,"RA_OF_ASC_NODE":316.853,"ARG_OF_PERICENTER":236.7765,"MEAN_ANOMALY":123.299,"EPHEMERIS_TYPE":0,"CLASSIFICATION_TYPE":"U","NORAD_CAT_ID":59361,"ELEMENT_SET_NO":999,"REV_AT_EPOCH":8902,"BSTAR":2.4386277e-5,"MEAN_MOTION_DOT":4.09e-6,"MEAN_MOTION_DDOT":0},{"OBJECT_NAME":"STARLINK-31571","OBJECT_ID":"2024-060Q","EPOCH":"2025-10-23T09:32:47.791968","MEAN_MOTION":15.27592428,"ECCENTRICITY":0.0001361,"INCLINATION":43.0014,"RA_OF_ASC_NODE":315.3952,"ARG_OF_PERICENTER":259.7579,"MEAN_ANOMALY":100.3119,"EPHEMERIS_TYPE":0,"CLASSIFICATION_TYPE":"U","NORAD_CAT_ID":59362,"ELEMENT_SET_NO":999,"REV_AT_EPOCH":8906,"BSTAR":2.3901e-5,"MEAN_MOTION_DOT":3.96e-6,"MEAN_MOTION_DDOT":0},{"OBJECT_NAME":"STARLINK-31553","OBJECT_ID":"2024-060R","EPOCH":"2025-10-23T10:51:40.995648","MEAN_MOTION":15.27576999,"ECCENTRICITY":0.0001694,"INCLINATION":43.0014,"RA_OF_ASC_NODE":308.0101,"ARG_OF_PERICENTER":267.7117,"MEAN_ANOMALY":92.3541,"EPHEMERIS_TYPE":0,"CLASSIFICATION_TYPE":"U","NORAD_CAT_ID":59363,"ELEMENT_SET_NO":999,"REV_AT_EPOCH":8915,"BSTAR":6.8537e-5,"MEAN_MOTION_DOT":1.624e-5,"MEAN_MOTION_DDOT":0},{"OBJECT_NAME":"STARLINK-31547","OBJECT_ID":"2024-060S","EPOCH":"2025-10-23T10:33:40.159296","MEAN_MOTION":15.27582576,"ECCENTRICITY":0.0002354,"INCLINATION":43.0048,"RA_OF_ASC_NODE":303.6029,"ARG_OF_PERICENTER":275.64,"MEAN_ANOMALY":84.4183,"EPHEMERIS_TYPE":0,"CLASSIFICATION_TYPE":"U","NORAD_CAT_ID":59364,"ELEMENT_SET_NO":999,"REV_AT_EPOCH":8920,"BSTAR":-7.1022e-6,"MEAN_MOTION_DOT":-4.58e-6,"MEAN_MOTION_DDOT":0},{"OBJECT_NAME":"STARLINK-31537","OBJECT_ID":"2024-060T","EPOCH":"2025-10-23T08:09:45.677664","MEAN_MOTION":15.27559317,"ECCENTRICITY":0.0001323,"INCLINATION":43.0059,"RA_OF_ASC_NODE":315.8235,"ARG_OF_PERICENTER":234.8937,"MEAN_ANOMALY":125.179,"EPHEMERIS_TYPE":0,"CLASSIFICATION_TYPE":"U","NORAD_CAT_ID":59365,"ELEMENT_SET_NO":999,"REV_AT_EPOCH":8905,"BSTAR":-5.5973e-5,"MEAN_MOTION_DOT":-1.801e-5,"MEAN_MOTION_DDOT":0},{"OBJECT_NAME":"STARLINK-31451","OBJECT_ID":"2024-060U","EPOCH":"2025-10-23T08:35:26.715840","MEAN_MOTION":15.27582584,"ECCENTRICITY":9.86e-5,"INCLINATION":42.9999,"RA_OF_ASC_NODE":315.0941,"ARG_OF_PERICENTER":269.0174,"MEAN_ANOMALY":91.0564,"EPHEMERIS_TYPE":0,"CLASSIFICATION_TYPE":"U","NORAD_CAT_ID":59366,"ELEMENT_SET_NO":999,"REV_AT_EPOCH":8906,"BSTAR":1.607e-5,"MEAN_MOTION_DOT":1.8e-6,"MEAN_MOTION_DDOT":0}]
